[{"OBJECT_NAME":"YUNHAI-1 02","OBJECT_ID":"2019-063A","EPOCH":"2026-03-09T23:04:05.569248","MEAN_MOTION":14.32707277,"ECCENTRICITY":0.00067235,"INCLINATION":98.4179,"RA_OF_ASC_NODE":82.2649,"ARG_OF_PERICENTER":91.6948,"MEAN_ANOMALY":268.5007,"EPHEMERIS_TYPE":0,"CLASSIFICATION_TYPE":"U","NORAD_CAT_ID":44547,"ELEMENT_SET_NO":999,"REV_AT_EPOCH":33766,"BSTAR":0.00012714191,"MEAN_MOTION_DOT":3.04e-6,"MEAN_MOTION_DDOT":0},{"OBJECT_NAME":"CZ-6A DEB","OBJECT_ID":"2024-140JV","EPOCH":"2026-03-09T12:42:13.616064","MEAN_MOTION":14.57005514,"ECCENTRICITY":0.01088917,"INCLINATION":88.9372,"RA_OF_ASC_NODE":277.8319,"ARG_OF_PERICENTER":255.3693,"MEAN_ANOMALY":103.5425,"EPHEMERIS_TYPE":0,"CLASSIFICATION_TYPE":"U","NORAD_CAT_ID":60866,"ELEMENT_SET_NO":999,"REV_AT_EPOCH":8303,"BSTAR":0.00063879028,"MEAN_MOTION_DOT":3.13e-5,"MEAN_MOTION_DDOT":0}]
